{
"type": "FeatureCollection",
"name": "lightning_2km",
"crs": { "type": "name", "properties": { "name": "urn:ogc:def:crs:EPSG::2154" } },
"features": [
{ "type": "Feature", "properties": { "date": "2013-07-01 15:44:35+00", "flash_time": "2013-07-01 15:44:35" }, "geometry": { "type": "Point", "coordinates": [ 1021216.294429052388296, 6351132.269259521737695 ] } },
{ "type": "Feature", "properties": { "date": "2013-07-06 14:07:49+00", "flash_time": "2013-07-06 14:07:49" }, "geometry": { "type": "Point", "coordinates": [ 1020905.743912681238726, 6354086.672430676408112 ] } },
{ "type": "Feature", "properties": { "date": "2013-07-06 14:08:51+00", "flash_time": "2013-07-06 14:08:51" }, "geometry": { "type": "Point", "coordinates": [ 1021249.022762421052903, 6354415.645585278049111 ] } },
{ "type": "Feature", "properties": { "date": "2013-07-06 14:26:47+00", "flash_time": "2013-07-06 14:26:47" }, "geometry": { "type": "Point", "coordinates": [ 1020566.140285959816538, 6353212.813640244305134 ] } },
{ "type": "Feature", "properties": { "date": "2013-07-06 15:34:06+00", "flash_time": "2013-07-06 15:34:06" }, "geometry": { "type": "Point", "coordinates": [ 1020247.379786163801327, 6352084.173225625418127 ] } },
{ "type": "Feature", "properties": { "date": "2013-07-06 15:40:20+00", "flash_time": "2013-07-06 15:40:20" }, "geometry": { "type": "Point", "coordinates": [ 1020655.065943056717515, 6353195.08867419231683 ] } },
{ "type": "Feature", "properties": { "date": "2013-07-06 19:02:39+00", "flash_time": "2013-07-06 19:02:39" }, "geometry": { "type": "Point", "coordinates": [ 1021611.419044652488083, 6350918.797881257720292 ] } },
{ "type": "Feature", "properties": { "date": "2013-07-11 15:07:02+00", "flash_time": "2013-07-11 15:07:02" }, "geometry": { "type": "Point", "coordinates": [ 1022141.931512012612075, 6351346.367893842048943 ] } },
{ "type": "Feature", "properties": { "date": "2013-07-11 15:14:44+00", "flash_time": "2013-07-11 15:14:44" }, "geometry": { "type": "Point", "coordinates": [ 1020103.775250096688978, 6353178.188531272113323 ] } },
{ "type": "Feature", "properties": { "date": "2013-07-11 15:16:58+00", "flash_time": "2013-07-11 15:16:58" }, "geometry": { "type": "Point", "coordinates": [ 1021326.174002773361281, 6350704.011942332610488 ] } },
{ "type": "Feature", "properties": { "date": "2013-07-11 15:16:59+00", "flash_time": "2013-07-11 15:16:59" }, "geometry": { "type": "Point", "coordinates": [ 1022938.218628503615037, 6352521.820197169668972 ] } },
{ "type": "Feature", "properties": { "date": "2013-07-11 15:16:59+00", "flash_time": "2013-07-11 15:16:59" }, "geometry": { "type": "Point", "coordinates": [ 1022567.621274013072252, 6352569.591017379425466 ] } },
{ "type": "Feature", "properties": { "date": "2013-07-11 15:16:59+00", "flash_time": "2013-07-11 15:16:59" }, "geometry": { "type": "Point", "coordinates": [ 1020852.836122965556569, 6353082.785752282477915 ] } },
{ "type": "Feature", "properties": { "date": "2013-07-11 15:16:59+00", "flash_time": "2013-07-11 15:16:59" }, "geometry": { "type": "Point", "coordinates": [ 1023299.147569284541532, 6352662.693694277666509 ] } },
{ "type": "Feature", "properties": { "date": "2013-07-11 15:19:52+00", "flash_time": "2013-07-11 15:19:52" }, "geometry": { "type": "Point", "coordinates": [ 1023133.738520780112594, 6352142.478585532866418 ] } },
{ "type": "Feature", "properties": { "date": "2013-07-14 13:48:43+00", "flash_time": "2013-07-14 13:48:43" }, "geometry": { "type": "Point", "coordinates": [ 1022698.805278141051531, 6352821.046550734899938 ] } },
{ "type": "Feature", "properties": { "date": "2013-07-14 13:48:43+00", "flash_time": "2013-07-14 13:48:43" }, "geometry": { "type": "Point", "coordinates": [ 1022111.306255949428305, 6353981.314584566280246 ] } },
{ "type": "Feature", "properties": { "date": "2013-07-14 13:48:43+00", "flash_time": "2013-07-14 13:48:43" }, "geometry": { "type": "Point", "coordinates": [ 1021224.394130316679366, 6354114.032170756720006 ] } },
{ "type": "Feature", "properties": { "date": "2013-07-14 14:13:45+00", "flash_time": "2013-07-14 14:13:45" }, "geometry": { "type": "Point", "coordinates": [ 1020790.40989913023077, 6353680.323773201555014 ] } },
{ "type": "Feature", "properties": { "date": "2013-07-14 14:21:00+00", "flash_time": "2013-07-14 14:21:00" }, "geometry": { "type": "Point", "coordinates": [ 1022840.257761715212837, 6353184.276743463240564 ] } },
{ "type": "Feature", "properties": { "date": "2013-07-14 14:21:52+00", "flash_time": "2013-07-14 14:21:52" }, "geometry": { "type": "Point", "coordinates": [ 1019786.201564733404666, 6353128.69397410005331 ] } },
{ "type": "Feature", "properties": { "date": "2013-07-14 14:21:52+00", "flash_time": "2013-07-14 14:21:52" }, "geometry": { "type": "Point", "coordinates": [ 1020114.93814535450656, 6353746.094784959219396 ] } },
{ "type": "Feature", "properties": { "date": "2013-07-14 14:22:55+00", "flash_time": "2013-07-14 14:22:55" }, "geometry": { "type": "Point", "coordinates": [ 1021009.62285342765972, 6354403.445004421286285 ] } },
{ "type": "Feature", "properties": { "date": "2013-07-14 14:24:55+00", "flash_time": "2013-07-14 14:24:55" }, "geometry": { "type": "Point", "coordinates": [ 1021974.800523784477264, 6353051.007588776759803 ] } },
{ "type": "Feature", "properties": { "date": "2013-07-14 14:24:55+00", "flash_time": "2013-07-14 14:24:55" }, "geometry": { "type": "Point", "coordinates": [ 1022896.128589757718146, 6353187.138960698619485 ] } },
{ "type": "Feature", "properties": { "date": "2013-07-14 14:27:58+00", "flash_time": "2013-07-14 14:27:58" }, "geometry": { "type": "Point", "coordinates": [ 1020587.022016406757757, 6352802.274330313317478 ] } },
{ "type": "Feature", "properties": { "date": "2013-07-17 13:39:29+00", "flash_time": "2013-07-17 13:39:29" }, "geometry": { "type": "Point", "coordinates": [ 1020191.956028302200139, 6352860.06240673456341 ] } },
{ "type": "Feature", "properties": { "date": "2013-07-22 15:27:21+00", "flash_time": "2013-07-22 15:27:21" }, "geometry": { "type": "Point", "coordinates": [ 1020282.449464636156335, 6353598.86579541862011 ] } },
{ "type": "Feature", "properties": { "date": "2013-07-29 05:13:55+00", "flash_time": "2013-07-29 05:13:55" }, "geometry": { "type": "Point", "coordinates": [ 1019972.409735962981358, 6353716.60785867087543 ] } },
{ "type": "Feature", "properties": { "date": "2013-07-29 05:28:13+00", "flash_time": "2013-07-29 05:28:13" }, "geometry": { "type": "Point", "coordinates": [ 1019949.85582195664756, 6352269.302926854230464 ] } },
{ "type": "Feature", "properties": { "date": "2016-10-14 04:29:37+00", "flash_time": "2016-10-14 04:29:37" }, "geometry": { "type": "Point", "coordinates": [ 1019749.97799201507587, 6351791.938555276952684 ] } },
{ "type": "Feature", "properties": { "date": "2016-10-14 04:30:30+00", "flash_time": "2016-10-14 04:30:30" }, "geometry": { "type": "Point", "coordinates": [ 1021022.216007965151221, 6353213.779297687113285 ] } },
{ "type": "Feature", "properties": { "date": "2016-10-14 04:32:32+00", "flash_time": "2016-10-14 04:32:32" }, "geometry": { "type": "Point", "coordinates": [ 1022857.851882495218888, 6352684.572027685120702 ] } },
{ "type": "Feature", "properties": { "date": "2016-10-14 04:40:24+00", "flash_time": "2016-10-14 04:40:24" }, "geometry": { "type": "Point", "coordinates": [ 1021910.036927155219018, 6351968.621934190392494 ] } },
{ "type": "Feature", "properties": { "date": "2016-10-14 04:40:48+00", "flash_time": "2016-10-14 04:40:48" }, "geometry": { "type": "Point", "coordinates": [ 1020779.826719106640667, 6350742.938327661715448 ] } },
{ "type": "Feature", "properties": { "date": "2016-10-14 04:43:04+00", "flash_time": "2016-10-14 04:43:04" }, "geometry": { "type": "Point", "coordinates": [ 1021360.833599788602442, 6353164.289858190342784 ] } },
{ "type": "Feature", "properties": { "date": "2016-10-14 04:54:59+00", "flash_time": "2016-10-14 04:54:59" }, "geometry": { "type": "Point", "coordinates": [ 1021977.001755266450346, 6350970.831172711215913 ] } },
{ "type": "Feature", "properties": { "date": "2016-10-14 04:56:39+00", "flash_time": "2016-10-14 04:56:39" }, "geometry": { "type": "Point", "coordinates": [ 1022794.508096140809357, 6352358.714512813836336 ] } },
{ "type": "Feature", "properties": { "date": "2016-10-14 07:57:51+00", "flash_time": "2016-10-14 07:57:51" }, "geometry": { "type": "Point", "coordinates": [ 1020117.282599524594843, 6353857.456715169362724 ] } },
{ "type": "Feature", "properties": { "date": "2016-10-14 08:00:30+00", "flash_time": "2016-10-14 08:00:30" }, "geometry": { "type": "Point", "coordinates": [ 1020897.263967534294352, 6352996.052537506446242 ] } },
{ "type": "Feature", "properties": { "date": "2016-10-14 08:01:50+00", "flash_time": "2016-10-14 08:01:50" }, "geometry": { "type": "Point", "coordinates": [ 1021147.684208457358181, 6352007.608112493529916 ] } },
{ "type": "Feature", "properties": { "date": "2016-10-14 08:04:23+00", "flash_time": "2016-10-14 08:04:23" }, "geometry": { "type": "Point", "coordinates": [ 1022773.822767062461935, 6351512.184359868057072 ] } },
{ "type": "Feature", "properties": { "date": "2016-10-14 08:09:34+00", "flash_time": "2016-10-14 08:09:34" }, "geometry": { "type": "Point", "coordinates": [ 1022429.878873215289786, 6351194.219083172269166 ] } },
{ "type": "Feature", "properties": { "date": "2016-10-14 08:11:10+00", "flash_time": "2016-10-14 08:11:10" }, "geometry": { "type": "Point", "coordinates": [ 1020829.491693254560232, 6351969.156444032676518 ] } },
{ "type": "Feature", "properties": { "date": "2016-10-14 08:11:56+00", "flash_time": "2016-10-14 08:11:56" }, "geometry": { "type": "Point", "coordinates": [ 1021512.87401725363452, 6354262.237038331106305 ] } },
{ "type": "Feature", "properties": { "date": "2016-10-14 08:13:01+00", "flash_time": "2016-10-14 08:13:01" }, "geometry": { "type": "Point", "coordinates": [ 1019904.507468330324627, 6352689.725660252384841 ] } },
{ "type": "Feature", "properties": { "date": "2016-10-14 08:15:33+00", "flash_time": "2016-10-14 08:15:33" }, "geometry": { "type": "Point", "coordinates": [ 1020808.483673172770068, 6353325.264249803498387 ] } },
{ "type": "Feature", "properties": { "date": "2016-10-14 09:09:35+00", "flash_time": "2016-10-14 09:09:35" }, "geometry": { "type": "Point", "coordinates": [ 1022507.667099663754925, 6352177.163054186850786 ] } },
{ "type": "Feature", "properties": { "date": "2016-10-14 09:22:04+00", "flash_time": "2016-10-14 09:22:04" }, "geometry": { "type": "Point", "coordinates": [ 1021759.045235736411996, 6350692.7141432473436 ] } },
{ "type": "Feature", "properties": { "date": "2016-10-14 09:23:05+00", "flash_time": "2016-10-14 09:23:05" }, "geometry": { "type": "Point", "coordinates": [ 1022452.601332893129438, 6353253.42731311917305 ] } },
{ "type": "Feature", "properties": { "date": "2016-10-14 09:23:05+00", "flash_time": "2016-10-14 09:23:05" }, "geometry": { "type": "Point", "coordinates": [ 1022670.372859500115737, 6353220.074920161627233 ] } },
{ "type": "Feature", "properties": { "date": "2016-10-14 09:24:24+00", "flash_time": "2016-10-14 09:24:24" }, "geometry": { "type": "Point", "coordinates": [ 1022755.354402010096237, 6353435.792830381542444 ] } },
{ "type": "Feature", "properties": { "date": "2016-10-14 09:25:09+00", "flash_time": "2016-10-14 09:25:09" }, "geometry": { "type": "Point", "coordinates": [ 1020309.16588080173824, 6352443.292489320039749 ] } },
{ "type": "Feature", "properties": { "date": "2016-10-14 09:25:28+00", "flash_time": "2016-10-14 09:25:28" }, "geometry": { "type": "Point", "coordinates": [ 1023072.675129435956478, 6351772.235362900421023 ] } },
{ "type": "Feature", "properties": { "date": "2016-10-14 09:27:02+00", "flash_time": "2016-10-14 09:27:02" }, "geometry": { "type": "Point", "coordinates": [ 1022117.337187992874533, 6353080.539887240156531 ] } },
{ "type": "Feature", "properties": { "date": "2016-10-14 09:27:28+00", "flash_time": "2016-10-14 09:27:28" }, "geometry": { "type": "Point", "coordinates": [ 1021777.058219175320119, 6353319.020418963395059 ] } },
{ "type": "Feature", "properties": { "date": "2016-10-14 09:28:33+00", "flash_time": "2016-10-14 09:28:33" }, "geometry": { "type": "Point", "coordinates": [ 1022208.245221129385754, 6354119.764003751799464 ] } },
{ "type": "Feature", "properties": { "date": "2016-10-14 09:38:41+00", "flash_time": "2016-10-14 09:38:41" }, "geometry": { "type": "Point", "coordinates": [ 1021805.164259005570784, 6353865.553515394218266 ] } },
{ "type": "Feature", "properties": { "date": "2022-08-05 12:54:47+00", "flash_time": "2022-08-05 12:54:47" }, "geometry": { "type": "Point", "coordinates": [ 1022911.791194935562089, 6351319.00617293920368 ] } },
{ "type": "Feature", "properties": { "date": "2022-08-05 12:57:18+00", "flash_time": "2022-08-05 12:57:18" }, "geometry": { "type": "Point", "coordinates": [ 1023250.084133592434227, 6352370.936782870441675 ] } },
{ "type": "Feature", "properties": { "date": "2022-08-05 13:00:50+00", "flash_time": "2022-08-05 13:00:50" }, "geometry": { "type": "Point", "coordinates": [ 1020317.671498241019435, 6353378.169618759304285 ] } },
{ "type": "Feature", "properties": { "date": "2022-08-05 19:21:16+00", "flash_time": "2022-08-05 19:21:16" }, "geometry": { "type": "Point", "coordinates": [ 1021398.597091131610796, 6353522.197074811905622 ] } },
{ "type": "Feature", "properties": { "date": "2022-08-05 19:25:53+00", "flash_time": "2022-08-05 19:25:53" }, "geometry": { "type": "Point", "coordinates": [ 1019849.616747327032499, 6351563.381809000857174 ] } },
{ "type": "Feature", "properties": { "date": "2022-08-05 19:27:36+00", "flash_time": "2022-08-05 19:27:36" }, "geometry": { "type": "Point", "coordinates": [ 1019630.547114746179432, 6352253.103321550413966 ] } },
{ "type": "Feature", "properties": { "date": "2022-08-05 19:27:36+00", "flash_time": "2022-08-05 19:27:36" }, "geometry": { "type": "Point", "coordinates": [ 1019867.776457886095159, 6352309.634543171152472 ] } },
{ "type": "Feature", "properties": { "date": "2022-08-05 19:27:36+00", "flash_time": "2022-08-05 19:27:36" }, "geometry": { "type": "Point", "coordinates": [ 1019680.589619319653139, 6352055.403300280682743 ] } },
{ "type": "Feature", "properties": { "date": "2022-08-05 19:27:36+00", "flash_time": "2022-08-05 19:27:36" }, "geometry": { "type": "Point", "coordinates": [ 1020015.68012027698569, 6351760.923957048915327 ] } },
{ "type": "Feature", "properties": { "date": "2022-08-05 19:28:30+00", "flash_time": "2022-08-05 19:28:30" }, "geometry": { "type": "Point", "coordinates": [ 1019843.265462722629309, 6352319.51508276630193 ] } },
{ "type": "Feature", "properties": { "date": "2022-08-05 19:30:05+00", "flash_time": "2022-08-05 19:30:05" }, "geometry": { "type": "Point", "coordinates": [ 1019764.715247176820412, 6351659.193908343091607 ] } },
{ "type": "Feature", "properties": { "date": "2022-08-05 19:35:53+00", "flash_time": "2022-08-05 19:35:53" }, "geometry": { "type": "Point", "coordinates": [ 1020635.949627755675465, 6353728.084783876314759 ] } },
{ "type": "Feature", "properties": { "date": "2022-08-05 19:35:53+00", "flash_time": "2022-08-05 19:35:53" }, "geometry": { "type": "Point", "coordinates": [ 1020320.747769333887845, 6353789.925546764396131 ] } },
{ "type": "Feature", "properties": { "date": "2022-08-05 19:35:53+00", "flash_time": "2022-08-05 19:35:53" }, "geometry": { "type": "Point", "coordinates": [ 1020307.04205129807815, 6353744.731690024957061 ] } },
{ "type": "Feature", "properties": { "date": "2022-08-05 19:38:51+00", "flash_time": "2022-08-05 19:38:51" }, "geometry": { "type": "Point", "coordinates": [ 1020350.857489626854658, 6352567.779302448034286 ] } },
{ "type": "Feature", "properties": { "date": "2022-08-05 19:38:51+00", "flash_time": "2022-08-05 19:38:51" }, "geometry": { "type": "Point", "coordinates": [ 1020387.949096372467466, 6352625.286410278640687 ] } },
{ "type": "Feature", "properties": { "date": "2022-08-06 12:46:09+00", "flash_time": "2022-08-06 12:46:09" }, "geometry": { "type": "Point", "coordinates": [ 1021816.452654368593358, 6351763.601968892849982 ] } },
{ "type": "Feature", "properties": { "date": "2022-08-06 12:47:13+00", "flash_time": "2022-08-06 12:47:13" }, "geometry": { "type": "Point", "coordinates": [ 1021810.351434479351155, 6350628.585136737674475 ] } },
{ "type": "Feature", "properties": { "date": "2022-08-06 12:47:22+00", "flash_time": "2022-08-06 12:47:22" }, "geometry": { "type": "Point", "coordinates": [ 1021340.645690312027, 6354030.96419947873801 ] } },
{ "type": "Feature", "properties": { "date": "2022-08-06 12:48:59+00", "flash_time": "2022-08-06 12:48:59" }, "geometry": { "type": "Point", "coordinates": [ 1022287.104832949349657, 6352577.490511620417237 ] } },
{ "type": "Feature", "properties": { "date": "2022-08-06 12:50:23+00", "flash_time": "2022-08-06 12:50:23" }, "geometry": { "type": "Point", "coordinates": [ 1022942.923775209928863, 6353523.273598124273121 ] } },
{ "type": "Feature", "properties": { "date": "2022-08-06 12:51:27+00", "flash_time": "2022-08-06 12:51:27" }, "geometry": { "type": "Point", "coordinates": [ 1022702.921811394393444, 6353522.104105607606471 ] } },
{ "type": "Feature", "properties": { "date": "2022-08-06 12:51:36+00", "flash_time": "2022-08-06 12:51:36" }, "geometry": { "type": "Point", "coordinates": [ 1022751.29745833389461, 6353046.22569074947387 ] } },
{ "type": "Feature", "properties": { "date": "2022-08-06 12:52:42+00", "flash_time": "2022-08-06 12:52:42" }, "geometry": { "type": "Point", "coordinates": [ 1022922.391591444145888, 6353455.474138054065406 ] } },
{ "type": "Feature", "properties": { "date": "2022-08-06 12:53:05+00", "flash_time": "2022-08-06 12:53:05" }, "geometry": { "type": "Point", "coordinates": [ 1021675.807358289719559, 6352323.773505059070885 ] } },
{ "type": "Feature", "properties": { "date": "2022-08-06 12:56:00+00", "flash_time": "2022-08-06 12:56:00" }, "geometry": { "type": "Point", "coordinates": [ 1023095.098242914071307, 6353208.460635180585086 ] } },
{ "type": "Feature", "properties": { "date": "2022-08-06 12:57:06+00", "flash_time": "2022-08-06 12:57:06" }, "geometry": { "type": "Point", "coordinates": [ 1021658.818383173202164, 6351088.084328969009221 ] } },
{ "type": "Feature", "properties": { "date": "2022-08-06 12:57:40+00", "flash_time": "2022-08-06 12:57:40" }, "geometry": { "type": "Point", "coordinates": [ 1020631.36756153719034, 6352559.793646463192999 ] } },
{ "type": "Feature", "properties": { "date": "2022-08-06 12:58:16+00", "flash_time": "2022-08-06 12:58:16" }, "geometry": { "type": "Point", "coordinates": [ 1021818.811119038844481, 6353755.006016155704856 ] } },
{ "type": "Feature", "properties": { "date": "2022-08-06 13:00:10+00", "flash_time": "2022-08-06 13:00:10" }, "geometry": { "type": "Point", "coordinates": [ 1022574.625528497737832, 6353370.917054816149175 ] } },
{ "type": "Feature", "properties": { "date": "2022-08-06 13:00:10+00", "flash_time": "2022-08-06 13:00:10" }, "geometry": { "type": "Point", "coordinates": [ 1021762.022466246737167, 6352673.033303798176348 ] } },
{ "type": "Feature", "properties": { "date": "2022-08-06 13:00:10+00", "flash_time": "2022-08-06 13:00:10" }, "geometry": { "type": "Point", "coordinates": [ 1020563.792983143823221, 6354202.759564485400915 ] } },
{ "type": "Feature", "properties": { "date": "2022-08-06 13:01:33+00", "flash_time": "2022-08-06 13:01:33" }, "geometry": { "type": "Point", "coordinates": [ 1022363.74136200430803, 6353582.616808658465743 ] } },
{ "type": "Feature", "properties": { "date": "2022-08-06 13:01:33+00", "flash_time": "2022-08-06 13:01:33" }, "geometry": { "type": "Point", "coordinates": [ 1021160.728678465588018, 6353165.21413429453969 ] } },
{ "type": "Feature", "properties": { "date": "2022-08-06 13:03:27+00", "flash_time": "2022-08-06 13:03:27" }, "geometry": { "type": "Point", "coordinates": [ 1021370.928244961891323, 6354221.623024737462401 ] } },
{ "type": "Feature", "properties": { "date": "2022-08-06 13:03:27+00", "flash_time": "2022-08-06 13:03:27" }, "geometry": { "type": "Point", "coordinates": [ 1021166.960709227016196, 6354455.95981995202601 ] } },
{ "type": "Feature", "properties": { "date": "2022-08-06 13:03:27+00", "flash_time": "2022-08-06 13:03:27" }, "geometry": { "type": "Point", "coordinates": [ 1021821.077589611290023, 6353710.623981771059334 ] } },
{ "type": "Feature", "properties": { "date": "2022-08-06 13:05:19+00", "flash_time": "2022-08-06 13:05:19" }, "geometry": { "type": "Point", "coordinates": [ 1021739.052792280097492, 6353906.675531799905002 ] } },
{ "type": "Feature", "properties": { "date": "2022-08-06 13:15:47+00", "flash_time": "2022-08-06 13:15:47" }, "geometry": { "type": "Point", "coordinates": [ 1021515.246731068240479, 6354529.343346662819386 ] } },
{ "type": "Feature", "properties": { "date": "2022-08-06 13:53:20+00", "flash_time": "2022-08-06 13:53:20" }, "geometry": { "type": "Point", "coordinates": [ 1021262.773072146927007, 6351790.982991652563214 ] } },
{ "type": "Feature", "properties": { "date": "2022-08-06 13:59:10+00", "flash_time": "2022-08-06 13:59:10" }, "geometry": { "type": "Point", "coordinates": [ 1022132.648442051839083, 6352780.96066556032747 ] } },
{ "type": "Feature", "properties": { "date": "2022-08-06 14:24:11+00", "flash_time": "2022-08-06 14:24:11" }, "geometry": { "type": "Point", "coordinates": [ 1022039.131352780619636, 6352731.683736662380397 ] } },
{ "type": "Feature", "properties": { "date": "2022-08-06 14:26:48+00", "flash_time": "2022-08-06 14:26:48" }, "geometry": { "type": "Point", "coordinates": [ 1021355.115017221076414, 6353119.500555816106498 ] } },
{ "type": "Feature", "properties": { "date": "2022-08-06 14:30:09+00", "flash_time": "2022-08-06 14:30:09" }, "geometry": { "type": "Point", "coordinates": [ 1022117.979880942963064, 6351345.144034078344703 ] } },
{ "type": "Feature", "properties": { "date": "2022-08-06 14:33:19+00", "flash_time": "2022-08-06 14:33:19" }, "geometry": { "type": "Point", "coordinates": [ 1021161.606569893890992, 6351262.977153445594013 ] } },
{ "type": "Feature", "properties": { "date": "2022-08-06 14:39:44+00", "flash_time": "2022-08-06 14:39:44" }, "geometry": { "type": "Point", "coordinates": [ 1020481.893289316445589, 6353453.264520988799632 ] } },
{ "type": "Feature", "properties": { "date": "2022-08-06 14:42:43+00", "flash_time": "2022-08-06 14:42:43" }, "geometry": { "type": "Point", "coordinates": [ 1020295.295498209539801, 6351141.033497797325253 ] } },
{ "type": "Feature", "properties": { "date": "2022-08-06 14:44:37+00", "flash_time": "2022-08-06 14:44:37" }, "geometry": { "type": "Point", "coordinates": [ 1020197.79123967862688, 6352115.027214606292546 ] } },
{ "type": "Feature", "properties": { "date": "2022-08-06 14:44:48+00", "flash_time": "2022-08-06 14:44:48" }, "geometry": { "type": "Point", "coordinates": [ 1021921.058495379984379, 6350812.23018935136497 ] } },
{ "type": "Feature", "properties": { "date": "2022-08-06 14:47:39+00", "flash_time": "2022-08-06 14:47:39" }, "geometry": { "type": "Point", "coordinates": [ 1022364.34510706900619, 6351379.986159864813089 ] } },
{ "type": "Feature", "properties": { "date": "2022-08-06 14:48:42+00", "flash_time": "2022-08-06 14:48:42" }, "geometry": { "type": "Point", "coordinates": [ 1021872.284077213029377, 6351610.70882720593363 ] } },
{ "type": "Feature", "properties": { "date": "2022-08-06 14:54:14+00", "flash_time": "2022-08-06 14:54:14" }, "geometry": { "type": "Point", "coordinates": [ 1020747.728690021205693, 6351531.14248548168689 ] } },
{ "type": "Feature", "properties": { "date": "2022-08-06 14:56:58+00", "flash_time": "2022-08-06 14:56:58" }, "geometry": { "type": "Point", "coordinates": [ 1021667.769076578435488, 6352167.620296195149422 ] } },
{ "type": "Feature", "properties": { "date": "2022-08-06 14:56:58+00", "flash_time": "2022-08-06 14:56:58" }, "geometry": { "type": "Point", "coordinates": [ 1021919.86883733025752, 6352402.980538903735578 ] } },
{ "type": "Feature", "properties": { "date": "2022-08-07 14:48:45+00", "flash_time": "2022-08-07 14:48:45" }, "geometry": { "type": "Point", "coordinates": [ 1022911.250032408861443, 6351485.848273280076683 ] } },
{ "type": "Feature", "properties": { "date": "2022-08-07 17:21:50+00", "flash_time": "2022-08-07 17:21:50" }, "geometry": { "type": "Point", "coordinates": [ 1022850.015679600415751, 6353618.634247747249901 ] } },
{ "type": "Feature", "properties": { "date": "2022-08-07 18:10:17+00", "flash_time": "2022-08-07 18:10:17" }, "geometry": { "type": "Point", "coordinates": [ 1023339.614075803896412, 6352497.899901299737394 ] } },
{ "type": "Feature", "properties": { "date": "2022-08-07 18:10:33+00", "flash_time": "2022-08-07 18:10:33" }, "geometry": { "type": "Point", "coordinates": [ 1021736.786829652497545, 6353951.057551153935492 ] } },
{ "type": "Feature", "properties": { "date": "2022-08-07 18:13:20+00", "flash_time": "2022-08-07 18:13:20" }, "geometry": { "type": "Point", "coordinates": [ 1021711.195815164828673, 6354138.866166124120355 ] } },
{ "type": "Feature", "properties": { "date": "2022-08-07 18:14:16+00", "flash_time": "2022-08-07 18:14:16" }, "geometry": { "type": "Point", "coordinates": [ 1021930.587855127640069, 6353916.457439508289099 ] } },
{ "type": "Feature", "properties": { "date": "2022-08-07 18:17:36+00", "flash_time": "2022-08-07 18:17:36" }, "geometry": { "type": "Point", "coordinates": [ 1023140.108269726857543, 6352954.902522495947778 ] } },
{ "type": "Feature", "properties": { "date": "2022-08-08 16:30:38+00", "flash_time": "2022-08-08 16:30:38" }, "geometry": { "type": "Point", "coordinates": [ 1020932.795345455175266, 6353398.339655257761478 ] } },
{ "type": "Feature", "properties": { "date": "2022-08-09 16:09:08+00", "flash_time": "2022-08-09 16:09:08" }, "geometry": { "type": "Point", "coordinates": [ 1020854.25724642095156, 6353683.574151200242341 ] } },
{ "type": "Feature", "properties": { "date": "2022-08-09 16:09:08+00", "flash_time": "2022-08-09 16:09:08" }, "geometry": { "type": "Point", "coordinates": [ 1020412.459912730730139, 6352615.408004324883223 ] } },
{ "type": "Feature", "properties": { "date": "2022-08-09 17:37:06+00", "flash_time": "2022-08-09 17:37:06" }, "geometry": { "type": "Point", "coordinates": [ 1023060.347079264465719, 6353418.046197312884033 ] } },
{ "type": "Feature", "properties": { "date": "2022-08-09 17:37:06+00", "flash_time": "2022-08-09 17:37:06" }, "geometry": { "type": "Point", "coordinates": [ 1022021.511912406887859, 6352919.900103816762567 ] } },
{ "type": "Feature", "properties": { "date": "2022-08-09 17:40:37+00", "flash_time": "2022-08-09 17:40:37" }, "geometry": { "type": "Point", "coordinates": [ 1021971.966373053495772, 6353106.485247139818966 ] } },
{ "type": "Feature", "properties": { "date": "2022-08-09 17:42:20+00", "flash_time": "2022-08-09 17:42:20" }, "geometry": { "type": "Point", "coordinates": [ 1020785.39998934417963, 6353935.928691863082349 ] } },
{ "type": "Feature", "properties": { "date": "2022-08-09 17:42:20+00", "flash_time": "2022-08-09 17:42:20" }, "geometry": { "type": "Point", "coordinates": [ 1021802.84946622652933, 6353754.190917942672968 ] } },
{ "type": "Feature", "properties": { "date": "2022-08-09 17:44:37+00", "flash_time": "2022-08-09 17:44:37" }, "geometry": { "type": "Point", "coordinates": [ 1021228.794168618042022, 6353713.778746888972819 ] } },
{ "type": "Feature", "properties": { "date": "2022-08-09 17:44:37+00", "flash_time": "2022-08-09 17:44:37" }, "geometry": { "type": "Point", "coordinates": [ 1021029.971972318599001, 6354004.005131194368005 ] } },
{ "type": "Feature", "properties": { "date": "2022-08-09 17:44:37+00", "flash_time": "2022-08-09 17:44:37" }, "geometry": { "type": "Point", "coordinates": [ 1021846.943480676040053, 6352577.248569075018167 ] } },
{ "type": "Feature", "properties": { "date": "2022-08-09 17:45:12+00", "flash_time": "2022-08-09 17:45:12" }, "geometry": { "type": "Point", "coordinates": [ 1020908.638807645998895, 6354186.938925122842193 ] } },
{ "type": "Feature", "properties": { "date": "2022-08-09 17:46:00+00", "flash_time": "2022-08-09 17:46:00" }, "geometry": { "type": "Point", "coordinates": [ 1022058.586468332912773, 6352977.416966427117586 ] } },
{ "type": "Feature", "properties": { "date": "2022-08-09 17:46:22+00", "flash_time": "2022-08-09 17:46:22" }, "geometry": { "type": "Point", "coordinates": [ 1020481.008372190408409, 6353942.689698597416282 ] } },
{ "type": "Feature", "properties": { "date": "2022-08-09 17:46:44+00", "flash_time": "2022-08-09 17:46:44" }, "geometry": { "type": "Point", "coordinates": [ 1021213.334569799015298, 6353546.124844036065042 ] } },
{ "type": "Feature", "properties": { "date": "2022-08-09 17:47:49+00", "flash_time": "2022-08-09 17:47:49" }, "geometry": { "type": "Point", "coordinates": [ 1021192.218766154022887, 6353489.426635657437146 ] } },
{ "type": "Feature", "properties": { "date": "2022-08-09 17:48:30+00", "flash_time": "2022-08-09 17:48:30" }, "geometry": { "type": "Point", "coordinates": [ 1020430.303833936806768, 6353995.732771364971995 ] } },
{ "type": "Feature", "properties": { "date": "2022-08-09 17:48:30+00", "flash_time": "2022-08-09 17:48:30" }, "geometry": { "type": "Point", "coordinates": [ 1022410.55955288070254, 6353918.746785605326295 ] } },
{ "type": "Feature", "properties": { "date": "2022-08-09 17:50:26+00", "flash_time": "2022-08-09 17:50:26" }, "geometry": { "type": "Point", "coordinates": [ 1021296.289622419048101, 6352860.639504997991025 ] } },
{ "type": "Feature", "properties": { "date": "2022-08-09 17:50:26+00", "flash_time": "2022-08-09 17:50:26" }, "geometry": { "type": "Point", "coordinates": [ 1021636.643439741106704, 6354502.16566217225045 ] } },
{ "type": "Feature", "properties": { "date": "2022-08-09 17:51:03+00", "flash_time": "2022-08-09 17:51:03" }, "geometry": { "type": "Point", "coordinates": [ 1022632.824417116586119, 6353640.884903753176332 ] } },
{ "type": "Feature", "properties": { "date": "2022-08-09 17:51:41+00", "flash_time": "2022-08-09 17:51:41" }, "geometry": { "type": "Point", "coordinates": [ 1022081.650087957503274, 6351899.516229522414505 ] } },
{ "type": "Feature", "properties": { "date": "2022-08-09 17:51:41+00", "flash_time": "2022-08-09 17:51:41" }, "geometry": { "type": "Point", "coordinates": [ 1021700.483828978613019, 6352781.136889359913766 ] } },
{ "type": "Feature", "properties": { "date": "2022-08-09 17:51:58+00", "flash_time": "2022-08-09 17:51:58" }, "geometry": { "type": "Point", "coordinates": [ 1021250.41198418638669, 6353603.636766234412789 ] } },
{ "type": "Feature", "properties": { "date": "2022-08-09 17:52:23+00", "flash_time": "2022-08-09 17:52:23" }, "geometry": { "type": "Point", "coordinates": [ 1022717.152737578609958, 6353400.462886276654899 ] } },
{ "type": "Feature", "properties": { "date": "2022-08-09 17:52:23+00", "flash_time": "2022-08-09 17:52:23" }, "geometry": { "type": "Point", "coordinates": [ 1021193.728401104919612, 6354401.702443884685636 ] } },
{ "type": "Feature", "properties": { "date": "2022-08-09 17:52:50+00", "flash_time": "2022-08-09 17:52:50" }, "geometry": { "type": "Point", "coordinates": [ 1021843.320254140766338, 6353745.13323368690908 ] } },
{ "type": "Feature", "properties": { "date": "2022-08-09 17:53:55+00", "flash_time": "2022-08-09 17:53:55" }, "geometry": { "type": "Point", "coordinates": [ 1021365.211440075654536, 6354176.833948317915201 ] } },
{ "type": "Feature", "properties": { "date": "2022-08-09 17:54:26+00", "flash_time": "2022-08-09 17:54:26" }, "geometry": { "type": "Point", "coordinates": [ 1020890.117127460660413, 6352350.473005213774741 ] } },
{ "type": "Feature", "properties": { "date": "2022-08-09 17:54:26+00", "flash_time": "2022-08-09 17:54:26" }, "geometry": { "type": "Point", "coordinates": [ 1020603.143382601439953, 6352013.262388931587338 ] } },
{ "type": "Feature", "properties": { "date": "2022-08-09 17:54:41+00", "flash_time": "2022-08-09 17:54:41" }, "geometry": { "type": "Point", "coordinates": [ 1021607.345706490683369, 6353822.081561684608459 ] } },
{ "type": "Feature", "properties": { "date": "2022-08-09 17:54:41+00", "flash_time": "2022-08-09 17:54:41" }, "geometry": { "type": "Point", "coordinates": [ 1021238.783722332213074, 6353046.823539450764656 ] } },
{ "type": "Feature", "properties": { "date": "2022-08-09 17:54:41+00", "flash_time": "2022-08-09 17:54:41" }, "geometry": { "type": "Point", "coordinates": [ 1021987.270795649033971, 6352806.905722691677511 ] } },
{ "type": "Feature", "properties": { "date": "2022-08-09 17:54:44+00", "flash_time": "2022-08-09 17:54:44" }, "geometry": { "type": "Point", "coordinates": [ 1022293.100092822103761, 6351520.963215160183609 ] } },
{ "type": "Feature", "properties": { "date": "2022-08-09 17:55:32+00", "flash_time": "2022-08-09 17:55:32" }, "geometry": { "type": "Point", "coordinates": [ 1021329.725240594241768, 6352361.743738263845444 ] } },
{ "type": "Feature", "properties": { "date": "2022-08-09 17:56:11+00", "flash_time": "2022-08-09 17:56:11" }, "geometry": { "type": "Point", "coordinates": [ 1021088.341280100867152, 6351915.589390668086708 ] } },
{ "type": "Feature", "properties": { "date": "2022-08-09 17:56:39+00", "flash_time": "2022-08-09 17:56:39" }, "geometry": { "type": "Point", "coordinates": [ 1021380.323507472057827, 6351997.215646537952125 ] } },
{ "type": "Feature", "properties": { "date": "2022-08-09 17:56:39+00", "flash_time": "2022-08-09 17:56:39" }, "geometry": { "type": "Point", "coordinates": [ 1021342.606178150512278, 6351795.052047497592866 ] } },
{ "type": "Feature", "properties": { "date": "2022-08-09 17:56:39+00", "flash_time": "2022-08-09 17:56:39" }, "geometry": { "type": "Point", "coordinates": [ 1021594.73357535735704, 6352030.39968460611999 ] } },
{ "type": "Feature", "properties": { "date": "2022-08-09 17:56:39+00", "flash_time": "2022-08-09 17:56:39" }, "geometry": { "type": "Point", "coordinates": [ 1020913.862760069780052, 6354398.56731880735606 ] } },
{ "type": "Feature", "properties": { "date": "2022-08-09 17:57:04+00", "flash_time": "2022-08-09 17:57:04" }, "geometry": { "type": "Point", "coordinates": [ 1021316.196353250881657, 6351370.974897433072329 ] } },
{ "type": "Feature", "properties": { "date": "2022-08-09 17:57:04+00", "flash_time": "2022-08-09 17:57:04" }, "geometry": { "type": "Point", "coordinates": [ 1021546.977791987592354, 6350926.635522008873522 ] } },
{ "type": "Feature", "properties": { "date": "2022-08-09 17:57:04+00", "flash_time": "2022-08-09 17:57:04" }, "geometry": { "type": "Point", "coordinates": [ 1021924.56308623123914, 6351057.150009844452143 ] } },
{ "type": "Feature", "properties": { "date": "2022-08-09 17:57:30+00", "flash_time": "2022-08-09 17:57:30" }, "geometry": { "type": "Point", "coordinates": [ 1021157.835675418609753, 6353064.947006228379905 ] } },
{ "type": "Feature", "properties": { "date": "2022-08-09 17:57:30+00", "flash_time": "2022-08-09 17:57:30" }, "geometry": { "type": "Point", "coordinates": [ 1020740.219433570629917, 6352465.212186073884368 ] } },
{ "type": "Feature", "properties": { "date": "2022-08-09 17:57:30+00", "flash_time": "2022-08-09 17:57:30" }, "geometry": { "type": "Point", "coordinates": [ 1020731.672376652481034, 6352475.901671412400901 ] } },
{ "type": "Feature", "properties": { "date": "2022-08-09 17:57:56+00", "flash_time": "2022-08-09 17:57:56" }, "geometry": { "type": "Point", "coordinates": [ 1020959.979508359916508, 6354278.54846132453531 ] } },
{ "type": "Feature", "properties": { "date": "2022-08-09 17:57:56+00", "flash_time": "2022-08-09 17:57:56" }, "geometry": { "type": "Point", "coordinates": [ 1021327.007337522227317, 6354141.512567035853863 ] } },
{ "type": "Feature", "properties": { "date": "2022-08-09 17:57:56+00", "flash_time": "2022-08-09 17:57:56" }, "geometry": { "type": "Point", "coordinates": [ 1021158.352407036116347, 6354310.904477963224053 ] } },
{ "type": "Feature", "properties": { "date": "2022-08-09 17:58:45+00", "flash_time": "2022-08-09 17:58:45" }, "geometry": { "type": "Point", "coordinates": [ 1021734.101552675361745, 6354473.767909691669047 ] } },
{ "type": "Feature", "properties": { "date": "2022-08-09 17:59:19+00", "flash_time": "2022-08-09 17:59:19" }, "geometry": { "type": "Point", "coordinates": [ 1020190.08348735445179, 6352581.858750710263848 ] } },
{ "type": "Feature", "properties": { "date": "2022-08-09 17:59:19+00", "flash_time": "2022-08-09 17:59:19" }, "geometry": { "type": "Point", "coordinates": [ 1020196.349427474895492, 6353561.117683202959597 ] } },
{ "type": "Feature", "properties": { "date": "2022-08-09 17:59:20+00", "flash_time": "2022-08-09 17:59:20" }, "geometry": { "type": "Point", "coordinates": [ 1019928.52579444902949, 6351901.116828916594386 ] } },
{ "type": "Feature", "properties": { "date": "2022-08-09 17:59:20+00", "flash_time": "2022-08-09 17:59:20" }, "geometry": { "type": "Point", "coordinates": [ 1020417.666945142089389, 6351725.721673911437392 ] } },
{ "type": "Feature", "properties": { "date": "2022-08-09 17:59:30+00", "flash_time": "2022-08-09 17:59:30" }, "geometry": { "type": "Point", "coordinates": [ 1020940.314290287671611, 6351207.20986283197999 ] } },
{ "type": "Feature", "properties": { "date": "2022-08-09 17:59:50+00", "flash_time": "2022-08-09 17:59:50" }, "geometry": { "type": "Point", "coordinates": [ 1020263.818637153948657, 6351918.142689017578959 ] } },
{ "type": "Feature", "properties": { "date": "2022-08-09 18:00:19+00", "flash_time": "2022-08-09 18:00:19" }, "geometry": { "type": "Point", "coordinates": [ 1020236.669244002783671, 6352294.992127974517643 ] } },
{ "type": "Feature", "properties": { "date": "2022-08-09 18:01:39+00", "flash_time": "2022-08-09 18:01:39" }, "geometry": { "type": "Point", "coordinates": [ 1022684.362614612560719, 6351852.467815682291985 ] } },
{ "type": "Feature", "properties": { "date": "2022-08-09 18:01:48+00", "flash_time": "2022-08-09 18:01:48" }, "geometry": { "type": "Point", "coordinates": [ 1020318.866398500045761, 6351464.839219275861979 ] } },
{ "type": "Feature", "properties": { "date": "2022-08-09 18:01:48+00", "flash_time": "2022-08-09 18:01:48" }, "geometry": { "type": "Point", "coordinates": [ 1019925.209340467350557, 6351177.864311411976814 ] } },
{ "type": "Feature", "properties": { "date": "2022-08-09 18:02:06+00", "flash_time": "2022-08-09 18:02:06" }, "geometry": { "type": "Point", "coordinates": [ 1019772.086449995753355, 6352460.519839690066874 ] } },
{ "type": "Feature", "properties": { "date": "2022-08-09 18:02:33+00", "flash_time": "2022-08-09 18:02:33" }, "geometry": { "type": "Point", "coordinates": [ 1019945.782940914155915, 6351245.654712180607021 ] } },
{ "type": "Feature", "properties": { "date": "2022-08-09 18:02:48+00", "flash_time": "2022-08-09 18:02:48" }, "geometry": { "type": "Point", "coordinates": [ 1020248.304285889491439, 6352696.060103657655418 ] } },
{ "type": "Feature", "properties": { "date": "2022-08-09 18:03:51+00", "flash_time": "2022-08-09 18:03:51" }, "geometry": { "type": "Point", "coordinates": [ 1019743.224221374141052, 6351925.088072475977242 ] } },
{ "type": "Feature", "properties": { "date": "2022-08-09 18:03:51+00", "flash_time": "2022-08-09 18:03:51" }, "geometry": { "type": "Point", "coordinates": [ 1020284.858742105541751, 6351819.092173625715077 ] } },
{ "type": "Feature", "properties": { "date": "2022-08-09 18:03:51+00", "flash_time": "2022-08-09 18:03:51" }, "geometry": { "type": "Point", "coordinates": [ 1020114.202181319589727, 6351554.562916135415435 ] } },
{ "type": "Feature", "properties": { "date": "2022-08-09 18:03:51+00", "flash_time": "2022-08-09 18:03:51" }, "geometry": { "type": "Point", "coordinates": [ 1021462.607658990425989, 6351011.329432346858084 ] } },
{ "type": "Feature", "properties": { "date": "2022-08-09 18:04:39+00", "flash_time": "2022-08-09 18:04:39" }, "geometry": { "type": "Point", "coordinates": [ 1021340.221419647219591, 6352940.750246997922659 ] } },
{ "type": "Feature", "properties": { "date": "2022-08-09 18:05:15+00", "flash_time": "2022-08-09 18:05:15" }, "geometry": { "type": "Point", "coordinates": [ 1022515.786699994467199, 6352800.554230645298958 ] } },
{ "type": "Feature", "properties": { "date": "2022-08-09 18:05:44+00", "flash_time": "2022-08-09 18:05:44" }, "geometry": { "type": "Point", "coordinates": [ 1019948.898305296432227, 6351657.414826657623053 ] } },
{ "type": "Feature", "properties": { "date": "2022-08-09 18:06:18+00", "flash_time": "2022-08-09 18:06:18" }, "geometry": { "type": "Point", "coordinates": [ 1020297.236524268868379, 6352520.556819903664291 ] } },
{ "type": "Feature", "properties": { "date": "2022-08-09 18:06:18+00", "flash_time": "2022-08-09 18:06:18" }, "geometry": { "type": "Point", "coordinates": [ 1020171.955634009558707, 6352781.176036443561316 ] } },
{ "type": "Feature", "properties": { "date": "2022-08-09 18:06:18+00", "flash_time": "2022-08-09 18:06:18" }, "geometry": { "type": "Point", "coordinates": [ 1020225.598464002949186, 6350937.253337356261909 ] } },
{ "type": "Feature", "properties": { "date": "2022-08-09 18:07:52+00", "flash_time": "2022-08-09 18:07:52" }, "geometry": { "type": "Point", "coordinates": [ 1020040.36613987502642, 6351116.962712284177542 ] } },
{ "type": "Feature", "properties": { "date": "2022-08-09 18:09:01+00", "flash_time": "2022-08-09 18:09:01" }, "geometry": { "type": "Point", "coordinates": [ 1022793.85518499230966, 6351902.572090139612556 ] } },
{ "type": "Feature", "properties": { "date": "2022-08-09 18:09:01+00", "flash_time": "2022-08-09 18:09:01" }, "geometry": { "type": "Point", "coordinates": [ 1022934.684697126620449, 6351809.663402704522014 ] } },
{ "type": "Feature", "properties": { "date": "2022-08-09 18:09:01+00", "flash_time": "2022-08-09 18:09:01" }, "geometry": { "type": "Point", "coordinates": [ 1022927.369882461731322, 6352421.142919612117112 ] } },
{ "type": "Feature", "properties": { "date": "2022-08-09 18:09:01+00", "flash_time": "2022-08-09 18:09:01" }, "geometry": { "type": "Point", "coordinates": [ 1022923.461446148925461, 6352966.047839879989624 ] } },
{ "type": "Feature", "properties": { "date": "2022-08-09 18:10:14+00", "flash_time": "2022-08-09 18:10:14" }, "geometry": { "type": "Point", "coordinates": [ 1021919.302160003455356, 6352414.07611271366477 ] } },
{ "type": "Feature", "properties": { "date": "2022-08-09 18:11:45+00", "flash_time": "2022-08-09 18:11:45" }, "geometry": { "type": "Point", "coordinates": [ 1021084.298891858430579, 6350580.444343774579465 ] } },
{ "type": "Feature", "properties": { "date": "2022-08-09 18:12:41+00", "flash_time": "2022-08-09 18:12:41" }, "geometry": { "type": "Point", "coordinates": [ 1020977.49931912519969, 6353934.586043695919216 ] } },
{ "type": "Feature", "properties": { "date": "2022-08-10 13:31:45+00", "flash_time": "2022-08-10 13:31:45" }, "geometry": { "type": "Point", "coordinates": [ 1020898.852989241247997, 6351549.957873977720737 ] } },
{ "type": "Feature", "properties": { "date": "2022-08-10 13:39:12+00", "flash_time": "2022-08-10 13:39:12" }, "geometry": { "type": "Point", "coordinates": [ 1020673.616463085636497, 6352673.186862075701356 ] } },
{ "type": "Feature", "properties": { "date": "2022-08-10 13:47:42+00", "flash_time": "2022-08-10 13:47:42" }, "geometry": { "type": "Point", "coordinates": [ 1022893.657919635763392, 6351985.555869178846478 ] } },
{ "type": "Feature", "properties": { "date": "2022-08-10 13:54:03+00", "flash_time": "2022-08-10 13:54:03" }, "geometry": { "type": "Point", "coordinates": [ 1021556.067723688087426, 6352317.663970718160272 ] } },
{ "type": "Feature", "properties": { "date": "2022-08-10 14:11:10+00", "flash_time": "2022-08-10 14:11:10" }, "geometry": { "type": "Point", "coordinates": [ 1022433.933692882070318, 6353931.067201281897724 ] } },
{ "type": "Feature", "properties": { "date": "2022-08-10 14:12:39+00", "flash_time": "2022-08-10 14:12:39" }, "geometry": { "type": "Point", "coordinates": [ 1022433.69585669785738, 6352840.852341209538281 ] } },
{ "type": "Feature", "properties": { "date": "2022-08-10 14:18:41+00", "flash_time": "2022-08-10 14:18:41" }, "geometry": { "type": "Point", "coordinates": [ 1019786.597293360391632, 6353751.673192364163697 ] } },
{ "type": "Feature", "properties": { "date": "2022-08-10 14:19:02+00", "flash_time": "2022-08-10 14:19:02" }, "geometry": { "type": "Point", "coordinates": [ 1021256.945375225506723, 6352847.509537344798446 ] } },
{ "type": "Feature", "properties": { "date": "2022-08-10 14:43:04+00", "flash_time": "2022-08-10 14:43:04" }, "geometry": { "type": "Point", "coordinates": [ 1021608.039868446765468, 6352553.929680403321981 ] } },
{ "type": "Feature", "properties": { "date": "2022-08-10 14:43:04+00", "flash_time": "2022-08-10 14:43:04" }, "geometry": { "type": "Point", "coordinates": [ 1021796.885957616032101, 6352930.676332356408238 ] } },
{ "type": "Feature", "properties": { "date": "2022-08-10 15:09:42+00", "flash_time": "2022-08-10 15:09:42" }, "geometry": { "type": "Point", "coordinates": [ 1021387.786744036478922, 6353577.267834187485278 ] } },
{ "type": "Feature", "properties": { "date": "2022-08-21 15:07:29+00", "flash_time": "2022-08-21 15:07:29" }, "geometry": { "type": "Point", "coordinates": [ 1019676.334261088166386, 6351665.835793865844607 ] } },
{ "type": "Feature", "properties": { "date": "2022-08-21 15:08:46+00", "flash_time": "2022-08-21 15:08:46" }, "geometry": { "type": "Point", "coordinates": [ 1020934.276017781230621, 6352897.817521026358008 ] } },
{ "type": "Feature", "properties": { "date": "2022-08-21 15:09:57+00", "flash_time": "2022-08-21 15:09:57" }, "geometry": { "type": "Point", "coordinates": [ 1021459.164293997222558, 6353903.516215858049691 ] } },
{ "type": "Feature", "properties": { "date": "2022-08-21 15:09:57+00", "flash_time": "2022-08-21 15:09:57" }, "geometry": { "type": "Point", "coordinates": [ 1021469.352278501261026, 6353703.796574856154621 ] } },
{ "type": "Feature", "properties": { "date": "2022-08-21 15:09:57+00", "flash_time": "2022-08-21 15:09:57" }, "geometry": { "type": "Point", "coordinates": [ 1021463.06934367492795, 6353670.102836395613849 ] } },
{ "type": "Feature", "properties": { "date": "2022-08-21 15:09:57+00", "flash_time": "2022-08-21 15:09:57" }, "geometry": { "type": "Point", "coordinates": [ 1021261.406561753014103, 6354015.799627102911472 ] } },
{ "type": "Feature", "properties": { "date": "2022-08-21 15:11:23+00", "flash_time": "2022-08-21 15:11:23" }, "geometry": { "type": "Point", "coordinates": [ 1021499.577670659404248, 6353738.711733317002654 ] } },
{ "type": "Feature", "properties": { "date": "2022-08-21 15:14:20+00", "flash_time": "2022-08-21 15:14:20" }, "geometry": { "type": "Point", "coordinates": [ 1022371.722405953682028, 6353583.025063038803637 ] } },
{ "type": "Feature", "properties": { "date": "2022-08-21 15:14:20+00", "flash_time": "2022-08-21 15:14:20" }, "geometry": { "type": "Point", "coordinates": [ 1022643.673770351568237, 6353741.561053822748363 ] } },
{ "type": "Feature", "properties": { "date": "2022-08-21 15:14:20+00", "flash_time": "2022-08-21 15:14:20" }, "geometry": { "type": "Point", "coordinates": [ 1022702.948639036156237, 6353677.848930551670492 ] } },
{ "type": "Feature", "properties": { "date": "2022-08-21 15:14:20+00", "flash_time": "2022-08-21 15:14:20" }, "geometry": { "type": "Point", "coordinates": [ 1022796.888706854195334, 6352937.314868650399148 ] } },
{ "type": "Feature", "properties": { "date": "2022-08-21 15:21:36+00", "flash_time": "2022-08-21 15:21:36" }, "geometry": { "type": "Point", "coordinates": [ 1021655.531412771902978, 6353034.705404890701175 ] } },
{ "type": "Feature", "properties": { "date": "2022-08-21 15:21:36+00", "flash_time": "2022-08-21 15:21:36" }, "geometry": { "type": "Point", "coordinates": [ 1021932.058130635879934, 6353104.446607627905905 ] } },
{ "type": "Feature", "properties": { "date": "2022-08-21 15:26:10+00", "flash_time": "2022-08-21 15:26:10" }, "geometry": { "type": "Point", "coordinates": [ 1020696.973240217659622, 6353786.811620100401342 ] } },
{ "type": "Feature", "properties": { "date": "2022-08-21 17:32:24+00", "flash_time": "2022-08-21 17:32:24" }, "geometry": { "type": "Point", "coordinates": [ 1022343.230236460221931, 6351323.28347316198051 ] } },
{ "type": "Feature", "properties": { "date": "2022-08-26 03:20:19+00", "flash_time": "2022-08-26 03:20:19" }, "geometry": { "type": "Point", "coordinates": [ 1022045.888674910878763, 6352442.791513280011714 ] } },
{ "type": "Feature", "properties": { "date": "2022-08-26 03:22:04+00", "flash_time": "2022-08-26 03:22:04" }, "geometry": { "type": "Point", "coordinates": [ 1020261.66797120240517, 6351172.698423206806183 ] } },
{ "type": "Feature", "properties": { "date": "2022-08-26 11:53:47+00", "flash_time": "2022-08-26 11:53:47" }, "geometry": { "type": "Point", "coordinates": [ 1021226.083203745773062, 6352667.945584747940302 ] } },
{ "type": "Feature", "properties": { "date": "2022-08-26 12:01:12+00", "flash_time": "2022-08-26 12:01:12" }, "geometry": { "type": "Point", "coordinates": [ 1022487.526654528337531, 6353978.307567996904254 ] } },
{ "type": "Feature", "properties": { "date": "2022-08-26 12:01:12+00", "flash_time": "2022-08-26 12:01:12" }, "geometry": { "type": "Point", "coordinates": [ 1022324.25567719177343, 6352946.499915789812803 ] } },
{ "type": "Feature", "properties": { "date": "2022-08-26 12:12:15+00", "flash_time": "2022-08-26 12:12:15" }, "geometry": { "type": "Point", "coordinates": [ 1023008.397334459004924, 6352870.278872734867036 ] } },
{ "type": "Feature", "properties": { "date": "2022-08-26 12:29:50+00", "flash_time": "2022-08-26 12:29:50" }, "geometry": { "type": "Point", "coordinates": [ 1020826.199875027523376, 6351090.156901362352073 ] } },
{ "type": "Feature", "properties": { "date": "2022-08-26 13:04:17+00", "flash_time": "2022-08-26 13:04:17" }, "geometry": { "type": "Point", "coordinates": [ 1020175.992108738049865, 6352859.251429103314877 ] } },
{ "type": "Feature", "properties": { "date": "2022-08-26 13:28:08+00", "flash_time": "2022-08-26 13:28:08" }, "geometry": { "type": "Point", "coordinates": [ 1023011.62696009001229, 6351557.738551208749413 ] } },
{ "type": "Feature", "properties": { "date": "2022-08-30 20:45:58+00", "flash_time": "2022-08-30 20:45:58" }, "geometry": { "type": "Point", "coordinates": [ 1021045.999360806541517, 6354160.562642928212881 ] } },
{ "type": "Feature", "properties": { "date": "2022-08-30 20:46:55+00", "flash_time": "2022-08-30 20:46:55" }, "geometry": { "type": "Point", "coordinates": [ 1019542.974156640935689, 6351770.317738192155957 ] } },
{ "type": "Feature", "properties": { "date": "2022-08-30 20:48:17+00", "flash_time": "2022-08-30 20:48:17" }, "geometry": { "type": "Point", "coordinates": [ 1021949.133933836128563, 6351203.024217608384788 ] } },
{ "type": "Feature", "properties": { "date": "2022-08-30 20:48:32+00", "flash_time": "2022-08-30 20:48:32" }, "geometry": { "type": "Point", "coordinates": [ 1019845.816906169988215, 6352742.368646319955587 ] } },
{ "type": "Feature", "properties": { "date": "2022-08-30 20:48:51+00", "flash_time": "2022-08-30 20:48:51" }, "geometry": { "type": "Point", "coordinates": [ 1020426.038601908134297, 6351403.539100367575884 ] } },
{ "type": "Feature", "properties": { "date": "2022-08-30 20:48:51+00", "flash_time": "2022-08-30 20:48:51" }, "geometry": { "type": "Point", "coordinates": [ 1019965.555576126091182, 6353694.011300461366773 ] } },
{ "type": "Feature", "properties": { "date": "2022-08-30 20:50:11+00", "flash_time": "2022-08-30 20:50:11" }, "geometry": { "type": "Point", "coordinates": [ 1020298.585396455018781, 6350918.712025535292923 ] } },
{ "type": "Feature", "properties": { "date": "2022-08-30 20:50:11+00", "flash_time": "2022-08-30 20:50:11" }, "geometry": { "type": "Point", "coordinates": [ 1020618.297392084961757, 6351557.931741466745734 ] } },
{ "type": "Feature", "properties": { "date": "2022-08-30 20:50:28+00", "flash_time": "2022-08-30 20:50:28" }, "geometry": { "type": "Point", "coordinates": [ 1021461.162133899517357, 6351667.60260296240449 ] } },
{ "type": "Feature", "properties": { "date": "2022-08-30 20:50:57+00", "flash_time": "2022-08-30 20:50:57" }, "geometry": { "type": "Point", "coordinates": [ 1020800.312477743020281, 6350654.98469690605998 ] } },
{ "type": "Feature", "properties": { "date": "2022-08-30 20:50:57+00", "flash_time": "2022-08-30 20:50:57" }, "geometry": { "type": "Point", "coordinates": [ 1020390.682705393759534, 6352414.06235215626657 ] } },
{ "type": "Feature", "properties": { "date": "2022-08-30 20:51:32+00", "flash_time": "2022-08-30 20:51:32" }, "geometry": { "type": "Point", "coordinates": [ 1020077.297831655014306, 6352754.119653432630002 ] } },
{ "type": "Feature", "properties": { "date": "2022-08-30 20:52:02+00", "flash_time": "2022-08-30 20:52:02" }, "geometry": { "type": "Point", "coordinates": [ 1021384.272623082739301, 6353332.351451857015491 ] } },
{ "type": "Feature", "properties": { "date": "2022-08-30 20:52:29+00", "flash_time": "2022-08-30 20:52:29" }, "geometry": { "type": "Point", "coordinates": [ 1021996.886121802148409, 6350738.230184785090387 ] } },
{ "type": "Feature", "properties": { "date": "2022-08-30 20:52:29+00", "flash_time": "2022-08-30 20:52:29" }, "geometry": { "type": "Point", "coordinates": [ 1022042.0595491908025, 6351107.649093823507428 ] } },
{ "type": "Feature", "properties": { "date": "2022-08-30 20:52:29+00", "flash_time": "2022-08-30 20:52:29" }, "geometry": { "type": "Point", "coordinates": [ 1022095.162027139682323, 6351321.729027438908815 ] } },
{ "type": "Feature", "properties": { "date": "2022-08-30 20:52:29+00", "flash_time": "2022-08-30 20:52:29" }, "geometry": { "type": "Point", "coordinates": [ 1021993.021078906022012, 6351127.39350401237607 ] } },
{ "type": "Feature", "properties": { "date": "2022-08-30 20:52:29+00", "flash_time": "2022-08-30 20:52:29" }, "geometry": { "type": "Point", "coordinates": [ 1021954.800178278470412, 6351092.067799844779074 ] } },
{ "type": "Feature", "properties": { "date": "2022-08-30 20:52:29+00", "flash_time": "2022-08-30 20:52:29" }, "geometry": { "type": "Point", "coordinates": [ 1021978.803439051145688, 6351249.037735044956207 ] } },
{ "type": "Feature", "properties": { "date": "2022-08-31 19:10:38+00", "flash_time": "2022-08-31 19:10:38" }, "geometry": { "type": "Point", "coordinates": [ 1019997.848494273843244, 6352427.479930277913809 ] } },
{ "type": "Feature", "properties": { "date": "2022-08-31 19:13:04+00", "flash_time": "2022-08-31 19:13:04" }, "geometry": { "type": "Point", "coordinates": [ 1020736.922400146489963, 6351586.214908142574131 ] } },
{ "type": "Feature", "properties": { "date": "2022-08-31 19:13:04+00", "flash_time": "2022-08-31 19:13:04" }, "geometry": { "type": "Point", "coordinates": [ 1019886.357651490834542, 6351943.474238355644047 ] } },
{ "type": "Feature", "properties": { "date": "2022-08-31 19:13:04+00", "flash_time": "2022-08-31 19:13:04" }, "geometry": { "type": "Point", "coordinates": [ 1019873.870108904782683, 6352031.835328938439488 ] } },
{ "type": "Feature", "properties": { "date": "2022-08-31 19:14:58+00", "flash_time": "2022-08-31 19:14:58" }, "geometry": { "type": "Point", "coordinates": [ 1019701.217919438611716, 6353068.761109959334135 ] } },
{ "type": "Feature", "properties": { "date": "2022-08-31 19:16:03+00", "flash_time": "2022-08-31 19:16:03" }, "geometry": { "type": "Point", "coordinates": [ 1020532.819503026898019, 6351664.829246330074966 ] } },
{ "type": "Feature", "properties": { "date": "2022-08-31 19:16:03+00", "flash_time": "2022-08-31 19:16:03" }, "geometry": { "type": "Point", "coordinates": [ 1020523.622355416417122, 6351530.868515873327851 ] } },
{ "type": "Feature", "properties": { "date": "2022-08-31 19:17:19+00", "flash_time": "2022-08-31 19:17:19" }, "geometry": { "type": "Point", "coordinates": [ 1020139.938244168413803, 6351678.238094589672983 ] } },
{ "type": "Feature", "properties": { "date": "2022-08-31 19:17:19+00", "flash_time": "2022-08-31 19:17:19" }, "geometry": { "type": "Point", "coordinates": [ 1020137.589541271911003, 6351566.874938921071589 ] } },
{ "type": "Feature", "properties": { "date": "2022-08-31 19:17:19+00", "flash_time": "2022-08-31 19:17:19" }, "geometry": { "type": "Point", "coordinates": [ 1019921.830927223432809, 6351244.439196187071502 ] } },
{ "type": "Feature", "properties": { "date": "2022-08-31 19:17:19+00", "flash_time": "2022-08-31 19:17:19" }, "geometry": { "type": "Point", "coordinates": [ 1020114.202181319589727, 6351554.562916135415435 ] } },
{ "type": "Feature", "properties": { "date": "2022-08-31 19:20:24+00", "flash_time": "2022-08-31 19:20:24" }, "geometry": { "type": "Point", "coordinates": [ 1019594.784284717403352, 6352484.900324024260044 ] } }
]
}
